[{"OBJECT_NAME":"STARLINK-34220","OBJECT_ID":"2025-157AC","EPOCH":"2026-03-09T22:22:21.895104","MEAN_MOTION":15.30207695,"ECCENTRICITY":0.00014301,"INCLINATION":53.1591,"RA_OF_ASC_NODE":344.3347,"ARG_OF_PERICENTER":123.5259,"MEAN_ANOMALY":236.5878,"EPHEMERIS_TYPE":0,"CLASSIFICATION_TYPE":"U","NORAD_CAT_ID":64930,"ELEMENT_SET_NO":999,"REV_AT_EPOCH":3605,"BSTAR":0.00084052172,"MEAN_MOTION_DOT":0.00024623,"MEAN_MOTION_DDOT":0},{"OBJECT_NAME":"FENGYUN 1C DEB","OBJECT_ID":"1999-025FBF","EPOCH":"2026-03-06T07:33:49.292640","MEAN_MOTION":15.04395515,"ECCENTRICITY":0.01189701,"INCLINATION":98.9505,"RA_OF_ASC_NODE":84.7158,"ARG_OF_PERICENTER":75.0888,"MEAN_ANOMALY":286.3472,"EPHEMERIS_TYPE":0,"CLASSIFICATION_TYPE":"U","NORAD_CAT_ID":47029,"ELEMENT_SET_NO":999,"REV_AT_EPOCH":4330,"BSTAR":0.0027080259,"MEAN_MOTION_DOT":0.00044409,"MEAN_MOTION_DDOT":0}]
